[{"OBJECT_NAME":"KUIPER-00148","OBJECT_ID":"2025-217H","EPOCH":"2026-03-09T06:36:19.446048","MEAN_MOTION":15.09536529,"ECCENTRICITY":0.00081087,"INCLINATION":51.8794,"RA_OF_ASC_NODE":26.5769,"ARG_OF_PERICENTER":351.8096,"MEAN_ANOMALY":8.2745,"EPHEMERIS_TYPE":0,"CLASSIFICATION_TYPE":"U","NORAD_CAT_ID":65769,"ELEMENT_SET_NO":999,"REV_AT_EPOCH":2507,"BSTAR":0.00098730243,"MEAN_MOTION_DOT":0.00015783,"MEAN_MOTION_DDOT":0},{"OBJECT_NAME":"SL-3 DEB","OBJECT_ID":"1988-032C","EPOCH":"2026-03-09T20:54:05.348736","MEAN_MOTION":15.06065434,"ECCENTRICITY":0.00240661,"INCLINATION":97.6252,"RA_OF_ASC_NODE":41.5186,"ARG_OF_PERICENTER":162.4496,"MEAN_ANOMALY":255.7854,"EPHEMERIS_TYPE":0,"CLASSIFICATION_TYPE":"U","NORAD_CAT_ID":24893,"ELEMENT_SET_NO":999,"REV_AT_EPOCH":81391,"BSTAR":0.00022425917,"MEAN_MOTION_DOT":3.232e-5,"MEAN_MOTION_DDOT":0}]
